KUIPER-00533            
1 69605U 26140P   26188.46493528  .00019363  00000+0  51627-3 0  9990
2 69605  51.8780 300.6222 0007815 296.8587  63.1601 15.38138607  4359
KUIPER-00534            
1 69606U 26140Q   26188.44764161  .00021554  00000+0  56285-3 0  9993
2 69606  51.8818 300.5184 0013386 237.6888 122.2804 15.38651071  4352
KUIPER-00537            
1 69607U 26140R   26188.50003472 -.00025423  00000+0 -74241-3 0  9995
2 69607  51.8815 300.8149 0010243  30.9854 349.8372 15.34365188  4039
KUIPER-00538            
1 69608U 26140S   26188.47288026  .00020069  00000+0  54413-3 0  9990
2 69608  51.8808 300.6804 0006077 312.9647  47.0830 15.37606341  4354
KUIPER-00540            
1 69609U 26140T   26188.48096184  .00014986  00000+0  41938-3 0  9993
2 69609  51.8812 300.7338 0006152 358.2744   1.8221 15.36843088  4350
KUIPER-00541            
1 69610U 26140U   26188.46529381  .00017601  00000+0  46827-3 0  9992
2 69610  51.8814 300.6346 0006621 291.7301  68.2981 15.38283396  4355
KUIPER-00542            
1 69611U 26140V   26188.46360525  .00017040  00000+0  45387-3 0  9993
2 69611  51.8783 300.6142 0007856 273.5964  86.4125 15.38264894  4353
KUIPER-00543            
1 69612U 26140W   26188.48488020  .00016589  00000+0  46478-3 0  9996
2 69612  51.8788 300.7497 0007512  11.3158 348.7996 15.36715957  4354
KUIPER-00544            
1 69613U 26140X   26188.46736945  .00034220  00000+0  90542-3 0  9990
2 69613  51.8777 300.6389 0006453 289.4670  70.5619 15.38053424  4350
KUIPER-00546            
1 69614U 26140Y   26188.44877763  .00020927  00000+0  54395-3 0  9998
2 69614  51.8782 300.5212 0014289 233.3223 126.6451 15.38800284  4350
KUIPER-00547            
1 69615U 26140Z   26188.46020096  .00020211  00000+0  54441-3 0  9998
2 69615  51.8824 300.6021 0011765 264.5782  95.3863 15.37757338  4358
KUIPER-00549            
1 69616U 26140AA  26188.47788325  .00015819  00000+0  43584-3 0  9990
2 69616  51.8783 300.7061 0007188 349.0865  10.9965 15.37279545  4358
KUIPER-00550            
1 69617U 26140AB  26188.50003472 -.00022784  00000+0 -68544-3 0  9992
2 69617  51.8804 300.8886 0007599  24.7472 316.4253 15.33392330  3601
KUIPER-00551            
1 69618U 26140AC  26188.51924575  .00011923  00000+0  32214-3 0  9996
2 69618  51.8793 300.2412 0012408 249.2492 110.7166 15.38104053  4369
KUIPER-00554            
1 69619U 26140AD  26188.45864096  .00057001  00000+0  15006-2 0  9997
2 69619  51.8782 300.5831 0009680 245.4673 114.5305 15.37950269  4356
KUIPER-00555            
1 69620U 26140AE  26188.45608414  .00017315  00000+0  46449-3 0  9999
2 69620  51.8814 300.5716 0011457 249.1340 110.8421 15.38000128  4352
KUIPER-00556            
1 69621U 26140AF  26188.45661187  .00020495  00000+0  54406-3 0  9991
2 69621  51.8803 300.5748 0011846 237.2140 122.7706 15.38197827  4355
KUIPER-00557            
1 69622U 26140AG  26188.46246986  .00018262  00000+0  49861-3 0  9997
2 69622  51.8806 300.6138 0009884 268.5951  91.3904 15.37427827  4355
KUIPER-00560            
1 69623U 26140AH  26188.45869434 -.00051188  00000+0 -13157-2 0  9990
2 69623  51.8783 300.5843 0010852 264.8895  95.0853 15.38642037  4352
KUIPER-00561            
1 69624U 26140AJ  26188.46084858  .00020883  00000+0  54789-3 0  9994
2 69624  51.8819 300.6057 0007712 275.4454  84.5653 15.38585864  4356
KUIPER-00564            
1 69625U 26140AK  26188.50003472 -.00012865  00000+0 -33729-3 0  9997
2 69625  51.8808 300.3832 0009303 268.3799 323.7111 15.37182469  3601
KUIPER-00567            
1 69626U 26140AL  26188.45436351  .00023118  00000+0  60878-3 0  9994
2 69626  51.8783 300.5568 0012559 239.2805 120.6945 15.38359307  4354
KUIPER-00573            
1 69627U 26140AM  26188.46580030  .00024727  00000+0  67314-3 0  9999
2 69627  51.8782 300.6296 0009605 255.6913 104.3008 15.37323236  4353
KZ-11 R/B               
1 69628U 26138H   26188.32195274  .00711955  96200-5  75098-3 0  9991
2 69628  55.1550 192.8777 0411386 129.7956 234.0062 15.34374252  3036
ZHUQUE-2E DEB           
1 69629U 26128D   26188.56558737  .00201560  00000+0  11398-2 0  9999
2 69629  54.5324 206.7071 0049173  17.8408 342.4343 15.76295846  4394
ZHUQUE-2E DEB           
1 69630U 26128E   26188.10366980  .00013165  00000+0  15197-3 0  9992
2 69630  54.5280 210.6923 0078361  26.6398 333.8626 15.58636196  4287
ZHUQUE-2E DEB           
1 69631U 26128F   26188.61261843  .00179766  00000+0  14449-2 0  9999
2 69631  54.5240 207.6373 0061539  20.4462 339.9016 15.67424881  4378
ZHUQUE-2E DEB           
1 69634U 26128J   26188.48815704  .07160937  11692-4  40353-2 0  9992
2 69634  54.5137 204.7279 0028614  55.3867 304.9882 16.17474157  4282
CENTISPACE-1 GROUP 05 O*
1 69636U 26138J   26188.54483500 -.00000408  00000+0 -12883-3 0  9992
2 69636  55.1385 205.9508 0009041 327.4325  32.6091 14.15844622  2873
VICTUS HAZE PUMA        
1 69646U 26142A   26188.61297669  .00002952  00000+0  13600-3 0  9997
2 69646  97.4473  86.0040 0025215 294.1906  65.6694 15.20811324  2770
